[{"OBJECT_NAME":"KL-BETA B","OBJECT_ID":"2021-070B","EPOCH":"2026-03-09T22:27:50.032800","MEAN_MOTION":13.94701565,"ECCENTRICITY":0.00070924,"INCLINATION":88.9968,"RA_OF_ASC_NODE":229.226,"ARG_OF_PERICENTER":75.7139,"MEAN_ANOMALY":284.4824,"EPHEMERIS_TYPE":0,"CLASSIFICATION_TYPE":"U","NORAD_CAT_ID":49060,"ELEMENT_SET_NO":999,"REV_AT_EPOCH":23413,"BSTAR":4.5437163e-5,"MEAN_MOTION_DOT":7.4e-7,"MEAN_MOTION_DDOT":0},{"OBJECT_NAME":"FENGYUN 1C DEB","OBJECT_ID":"1999-025ALH","EPOCH":"2026-03-09T21:52:47.183808","MEAN_MOTION":14.09013075,"ECCENTRICITY":0.01079999,"INCLINATION":98.7845,"RA_OF_ASC_NODE":62.357,"ARG_OF_PERICENTER":304.0297,"MEAN_ANOMALY":119.0671,"EPHEMERIS_TYPE":0,"CLASSIFICATION_TYPE":"U","NORAD_CAT_ID":30567,"ELEMENT_SET_NO":999,"REV_AT_EPOCH":98001,"BSTAR":0.00041625011,"MEAN_MOTION_DOT":7.17e-6,"MEAN_MOTION_DDOT":0}]
